NORAD_CAT_ID,OBJECT_NAME,OBJECT_TYPE,EPOCH,MEAN_MOTION,ECCENTRICITY,INCLINATION,RA_OF_ASC_NODE,ARG_OF_PERICENTER,MEAN_ANOMALY,BSTAR,MEAN_MOTION_DOT,MEAN_MOTION_DDOT,TLE_LINE0,TLE_LINE1,TLE_LINE2,SEMIMAJOR_AXIS,PERIOD,APOGEE,PERIGEE,DECAYED
52843.0,STARLINK-4188,PAYLOAD,2023-03-20 10:38:24,15.08835873,0.0001206,53.2149,225.9808,82.9838,277.1291,-0.00015137,-2.696e-05,0.0,0 STARLINK-4188,1 52843U 22062P   23079.44333551 -.00002696  00000-0 -15137-3 0  9998,2 52843  53.2149 225.9808 0001206  82.9838 277.1291 15.08835873 41955,6917.893,95.438,540.592,538.924,0.0
52843.0,STARLINK-4188,PAYLOAD,2023-03-20 16:59:56,15.08843932,0.0001357,53.2155,224.7912,83.0731,277.0415,-1.0047e-05,-4.48e-06,0.0,0 STARLINK-4188,1 52843U 22062P   23079.70829162 -.00000448  00000-0 -10047-4 0  9994,2 52843  53.2155 224.7912 0001357  83.0731 277.0415 15.08843932 41992,6917.868,95.437,540.672,538.795,0.0
52843.0,STARLINK-4188,PAYLOAD,2023-03-21 08:53:47,15.08840467,0.0001664,53.2159,221.818,84.9174,275.2008,6.6883e-05,7.77e-06,0.0,0 STARLINK-4188,1 52843U 22062P   23080.37069431  .00000777  00000-0  66883-4 0  9996,2 52843  53.2159 221.8180 0001664  84.9174 275.2008 15.08840467 42093,6917.879,95.438,540.895,538.593,0.0
52843.0,STARLINK-4188,PAYLOAD,2023-03-21 13:39:57,15.08842025,0.0001406,53.2159,220.9263,88.1656,271.9497,0.00015795,2.227e-05,0.0,0 STARLINK-4188,1 52843U 22062P   23080.56941307  .00002227  00000-0  15795-3 0  9995,2 52843  53.2159 220.9263 0001406  88.1656 271.9497 15.08842025 42615,6917.874,95.437,540.712,538.767,0.0
52843.0,STARLINK-4188,PAYLOAD,2023-03-22 16:41:30,15.08844622,0.0001611,53.2163,215.8712,78.6283,281.489,9.8906e-05,1.287e-05,0.0,0 STARLINK-4188,1 52843U 22062P   23081.69549328  .00001287  00000-0  98906-4 0  9998,2 52843  53.2163 215.8712 0001611  78.6283 281.4890 15.08844622 42786,6917.866,95.437,540.846,538.617,0.0
52843.0,STARLINK-4188,PAYLOAD,2023-03-23 13:21:31,15.08841115,0.0001218,53.2151,212.0058,95.1276,264.9855,7.757e-05,9.47e-06,0.0,0 STARLINK-4188,1 52843U 22062P   23082.55661450  .00000947  00000-0  77570-4 0  9991,2 52843  53.2151 212.0058 0001218  95.1276 264.9855 15.08841115 42910,6917.877,95.437,540.585,538.899,0.0
52843.0,STARLINK-4188,PAYLOAD,2023-03-23 14:56:54,15.0884509,0.0001305,53.2147,211.7088,68.6454,291.4677,0.00012858,1.759e-05,0.0,0 STARLINK-4188,1 52843U 22062P   23082.62285375  .00001759  00000-0  12858-3 0  9996,2 52843  53.2147 211.7088 0001305  68.6454 291.4677 15.08845090 42434,6917.865,95.437,540.633,538.827,0.0
52843.0,STARLINK-4188,PAYLOAD,2023-03-24 02:04:35,15.08859578,0.0001205,53.2149,209.6261,93.0049,267.1081,0.0004074,6.205e-05,0.0,0 STARLINK-4188,1 52843U 22062P   23083.08652646  .00006205  00000-0  40740-3 0  9998,2 52843  53.2149 209.6261 0001205  93.0049 267.1081 15.08859578 42992,6917.821,95.436,540.519,538.852,0.0
52843.0,STARLINK-4188,PAYLOAD,2023-03-24 11:36:53,15.08874962,0.0001266,53.2159,207.8463,54.3811,305.7299,0.00060397,9.346e-05,0.0,0 STARLINK-4188,1 52843U 22062P   23083.48395294  .00009346  00000-0  60397-3 0  9994,2 52843  53.2159 207.8463 0001266  54.3811 305.7299 15.08874962 43053,6917.774,95.435,540.514,538.763,0.0
52843.0,STARLINK-4188,PAYLOAD,2023-03-24 13:12:15,15.08894143,0.0001446,53.217,207.5473,88.7927,271.3231,0.00094509,0.00014807,0.0,0 STARLINK-4188,1 52843U 22062P   23083.55018458  .00014807  00000-0  94509-3 0  9996,2 52843  53.2170 207.5473 0001446  88.7927 271.3231 15.08894143 42576,6917.715,95.434,540.58,538.58,0.0
52843.0,STARLINK-4188,PAYLOAD,2023-03-24 14:47:38,15.08904395,0.0001404,53.2166,207.2457,104.3989,255.7159,0.001029,0.00016155,0.0,0 STARLINK-4188,1 52843U 22062P   23083.61641615  .00016155  00000-0  10290-2 0  9992,2 52843  53.2166 207.2457 0001404 104.3989 255.7159 15.08904395 43079,6917.684,95.433,540.52,538.577,0.0
52843.0,STARLINK-4188,PAYLOAD,2023-03-25 11:27:40,15.08814962,0.0001398,53.216,203.378,119.5525,240.5606,-0.0010473,-0.00016905,0.0,0 STARLINK-4188,1 52843U 22062P   23084.47755594 -.00016905  00000-0 -10473-2 0  9997,2 52843  53.2160 203.3780 0001398 119.5525 240.5606 15.08814962 43209,6917.957,95.439,540.789,538.855,0.0
52843.0,STARLINK-4188,PAYLOAD,2023-03-25 14:38:27,15.08814282,0.000124,53.2157,202.7838,108.7249,251.3878,-0.0010936,-0.00017638,0.0,0 STARLINK-4188,1 52843U 22062P   23084.61003478 -.00017638  00000-0 -10936-2 0  9998,2 52843  53.2157 202.7838 0001240 108.7249 251.3878 15.08814282 42734,6917.959,95.439,540.682,538.966,0.0
52843.0,STARLINK-4188,PAYLOAD,2023-03-26 12:53:53,15.08815646,0.0001212,53.2157,198.6263,96.498,263.615,0.0007297,0.00011337,0.0,0 STARLINK-4188,1 52843U 22062P   23085.53742040  .00011337  00000-0  72970-3 0  9990,2 52843  53.2157 198.6263 0001212  96.4980 263.6150 15.08815646 43367,6917.955,95.439,540.658,538.981,0.0
52843.0,STARLINK-4188,PAYLOAD,2023-03-26 14:29:16,15.08825373,0.0001435,53.2167,198.3274,103.0328,257.0825,0.0013127,0.00020657,0.0,0 STARLINK-4188,1 52843U 22062P   23085.60366143  .00020657  00000-0  13127-2 0  9997,2 52843  53.2167 198.3274 0001435 103.0328 257.0825 15.08825373 42885,6917.925,95.438,540.783,538.797,0.0
52843.0,STARLINK-4188,PAYLOAD,2023-03-27 14:20:03,15.08845001,0.000148,53.216,193.8676,106.6392,253.4763,0.00064396,9.977e-05,0.0,0 STARLINK-4188,1 52843U 22062P   23086.59726390  .00009977  00000-0  64396-3 0  9997,2 52843  53.2160 193.8676 0001480 106.6392 253.4763 15.08845001 43033,6917.865,95.437,540.754,538.706,0.0
52843.0,STARLINK-4188,PAYLOAD,2023-03-28 07:49:18,15.08837823,0.0001208,53.2157,190.5967,97.563,262.5499,8.7548e-05,1.106e-05,0.0,0 STARLINK-4188,1 52843U 22062P   23087.32590414  .00001106  00000-0  87548-4 0  9996,2 52843  53.2157 190.5967 0001208  97.5630 262.5499 15.08837823 43633,6917.887,95.438,540.588,538.916,0.0
52843.0,STARLINK-4188,PAYLOAD,2023-03-28 14:10:50,15.088499,0.000134,53.2159,189.4075,95.2712,264.8433,0.00042772,6.528e-05,0.0,0 STARLINK-4188,1 52843U 22062P   23087.59086182  .00006528  00000-0  42772-3 0  9999,2 52843  53.2159 189.4075 0001340  95.2712 264.8433 15.08849900 43187,6917.85,95.437,540.642,538.788,0.0
52843.0,STARLINK-4188,PAYLOAD,2023-03-29 06:04:41,15.0884488,0.0001669,53.2159,186.435,106.5992,253.5183,0.0004312,6.582e-05,0.0,0 STARLINK-4188,1 52843U 22062P   23088.25326286  .00006582  00000-0  43120-3 0  9993,2 52843  53.2159 186.4350 0001669 106.5992 253.5183 15.08844880 43774,6917.865,95.437,540.885,538.576,0.0
52843.0,STARLINK-4188,PAYLOAD,2023-03-29 12:26:14,15.08845824,0.0001492,53.216,185.2447,110.2907,249.8246,0.00035106,5.304e-05,0.0,0 STARLINK-4188,1 52843U 22062P   23088.51822235  .00005304  00000-0  35106-3 0  9993,2 52843  53.2160 185.2447 0001492 110.2907 249.8246 15.08845824 43320,6917.863,95.437,540.76,538.695,0.0
52843.0,STARLINK-4188,PAYLOAD,2023-03-29 14:01:37,15.08851216,0.0001345,53.2157,184.9472,82.3289,277.7856,0.00052452,8.072e-05,0.0,0 STARLINK-4188,1 52843U 22062P   23088.58446255  .00008072  00000-0  52452-3 0  9992,2 52843  53.2157 184.9472 0001345  82.3289 277.7856 15.08851216 43339,6917.846,95.437,540.642,538.781,0.0
52843.0,STARLINK-4188,PAYLOAD,2023-03-30 05:55:29,15.08840401,0.0001711,53.2144,181.9766,76.044,284.0742,0.00016215,2.294e-05,0.0,0 STARLINK-4188,1 52843U 22062P   23089.24686664  .00002294  00000-0  16215-3 0  9993,2 52843  53.2144 181.9766 0001711  76.0440 284.0742 15.08840401 43928,6917.879,95.438,540.928,538.561,0.0
52843.0,STARLINK-4188,PAYLOAD,2023-03-30 12:17:01,15.08834817,9.53e-05,53.2154,180.7842,80.0161,280.0938,3.9829e-05,3.46e-06,0.0,0 STARLINK-4188,1 52843U 22062P   23089.51182741  .00000346  00000-0  39829-4 0  9993,2 52843  53.2154 180.7842 0000953  80.0161 280.0938 15.08834817 43964,6917.896,95.438,540.421,539.102,0.0
52843.0,STARLINK-4188,PAYLOAD,2023-03-31 05:46:16,15.08848945,0.0001475,53.2153,177.5112,94.0804,266.0357,0.00031871,4.789e-05,0.0,0 STARLINK-4188,1 52843U 22062P   23090.24046417  .00004789  00000-0  31871-3 0  9997,2 52843  53.2153 177.5112 0001475  94.0804 266.0357 15.08848945 44075,6917.853,95.437,540.738,538.698,0.0
52843.0,STARLINK-4188,PAYLOAD,2023-04-01 05:37:03,15.08843946,0.0001452,53.2138,173.0529,68.0949,292.0197,0.00025683,3.802e-05,0.0,0 STARLINK-4188,1 52843U 22062P   23091.23406558  .00003802  00000-0  25683-3 0  9992,2 52843  53.2138 173.0529 0001452  68.0949 292.0197 15.08843946 44221,6917.868,95.437,540.738,538.729,0.0
52843.0,STARLINK-4188,PAYLOAD,2023-04-01 11:58:36,15.08835329,0.0001315,53.2151,171.8613,84.7135,275.4007,9.3146e-05,1.195e-05,0.0,0 STARLINK-4188,1 52843U 22062P   23091.49902780  .00001195  00000-0  93146-4 0  9991,2 52843  53.2151 171.8613 0001315  84.7135 275.4007 15.08835329 44261,6917.895,95.438,540.669,538.85,0.0
52843.0,STARLINK-4188,PAYLOAD,2023-04-02 10:14:01,15.08825463,0.0001771,53.2162,167.702,73.9146,286.2041,0.0010378,0.00016261,0.0,0 STARLINK-4188,1 52843U 22062P   23092.42640239  .00016261  00000-0  10378-2 0  9997,2 52843  53.2162 167.7020 0001771  73.9146 286.2041 15.08825463 44409,6917.925,95.438,541.015,538.565,0.0
52843.0,STARLINK-4188,PAYLOAD,2023-04-02 21:21:41,15.08844373,0.0001451,53.2162,165.618,87.8422,272.2736,0.00020045,2.904e-05,0.0,0 STARLINK-4188,1 52843U 22062P   23092.89006795  .00002904  00000-0  20045-3 0  9993,2 52843  53.2162 165.6180 0001451  87.8422 272.2736 15.08844373 43988,6917.867,95.437,540.736,538.728,0.0
52843.0,STARLINK-4188,PAYLOAD,2023-04-03 11:40:10,15.08835855,0.0001631,53.2176,162.9438,91.3528,268.7651,0.00015238,2.138e-05,0.0,0 STARLINK-4188,1 52843U 22062P   23093.48623310  .00002138  00000-0  15238-3 0  9994,2 52843  53.2176 162.9438 0001631  91.3528 268.7651 15.08835855 44562,6917.893,95.438,540.886,538.63,0.0
52843.0,STARLINK-4188,PAYLOAD,2023-04-03 13:15:35,15.08800892,0.0001645,53.2165,162.6448,79.8027,280.3151,-0.00039989,-6.64e-05,0.0,0 STARLINK-4188,1 52843U 22062P   23093.55249115 -.00006640  00000-0 -39989-3 0  9992,2 52843  53.2165 162.6448 0001645  79.8027 280.3151 15.08800892 44083,6918.0,95.44,541.003,538.727,0.0
